[{"OBJECT_NAME":"STARLINK-33616","OBJECT_ID":"2025-063Y","EPOCH":"2026-03-09T23:28:02.383968","MEAN_MOTION":15.30206614,"ECCENTRICITY":0.0001654,"INCLINATION":53.1597,"RA_OF_ASC_NODE":61.7754,"ARG_OF_PERICENTER":64.9815,"MEAN_ANOMALY":295.1357,"EPHEMERIS_TYPE":0,"CLASSIFICATION_TYPE":"U","NORAD_CAT_ID":63385,"ELEMENT_SET_NO":999,"REV_AT_EPOCH":5460,"BSTAR":0.001035004,"MEAN_MOTION_DOT":0.00030427,"MEAN_MOTION_DDOT":0},{"OBJECT_NAME":"GEOSCAN 4 (RS92S4)","OBJECT_ID":"2025-155S","EPOCH":"2026-03-09T21:50:07.724832","MEAN_MOTION":15.30369837,"ECCENTRICITY":0.00070968,"INCLINATION":97.4465,"RA_OF_ASC_NODE":37.7626,"ARG_OF_PERICENTER":154.7045,"MEAN_ANOMALY":205.4544,"EPHEMERIS_TYPE":0,"CLASSIFICATION_TYPE":"U","NORAD_CAT_ID":64892,"ELEMENT_SET_NO":999,"REV_AT_EPOCH":6562,"BSTAR":0.00068609503,"MEAN_MOTION_DOT":0.00020121,"MEAN_MOTION_DDOT":0}]
